IRIDIUM 921             
1 24873U 97034E   24132.49875361  .00097353  00000+0  26813-2 0  9990
2 24873  86.3790 306.2544 0004554  54.4143 305.7533 15.36760068469829
IRIDIUM 26              
1 24903U 97043A   24132.82503005  .00001802  00000+0  60992-3 0  9995
2 24903  86.3924 279.0162 0002079  86.7372 273.4063 14.36338976399589
IRIDIUM 22              
1 24907U 97043E   24131.87650439  .00001161  00000+0  39947-3 0  9991
2 24907  86.3923 282.6243 0002141  92.9229 267.2212 14.35222719399046
DUMMY MASS 1            
1 24925U 97048A   24132.02721583  .00002323  00000+0  26150-3 0  9996
2 24925  86.3318 321.1710 0008703 121.1722 239.0357 14.86186441445625
DUMMY MASS 2            
1 24926U 97048B   24132.05779991  .00002308  00000+0  26134-3 0  9991
2 24926  86.3319 322.6935 0009233 130.8754 229.3272 14.85944979445415
IRIDIUM 29              
1 24944U 97051A   24132.86677567  .00001580  00000+0  54083-3 0  9995
2 24944  86.3920 312.1421 0002347  93.6383 266.5082 14.35678727395898
IRIDIUM 33              
1 24946U 97051C   24132.85952225  .00001139  00000+0  39838-3 0  9994
2 24946  86.3834 311.3987 0006359 320.7173  39.3560 14.34343898395210
IRIDIUM 28              
1 24948U 97051E   24131.91962637  .00001116  00000+0  37308-3 0  9995
2 24948  86.3924 310.2843 0001937  79.4894 280.6521 14.36624036396077
